IXPE                    
1 49954U 21121A   24111.25001157  .00012682  00000+0  99190-3 0  9997
2 49954   0.2291 102.7874 0009943 140.2480 190.3582 14.97351695129202
